[{"OBJECT_NAME":"GOES 1 (SMS-C)","OBJECT_ID":"1975-100A","EPOCH":"2026-03-04T10:38:38.463936","MEAN_MOTION":1.00237439,"ECCENTRICITY":0.00054158,"INCLINATION":4.8745,"RA_OF_ASC_NODE":278.7497,"ARG_OF_PERICENTER":359.8682,"MEAN_ANOMALY":282.5793,"EPHEMERIS_TYPE":0,"CLASSIFICATION_TYPE":"U","NORAD_CAT_ID":8366,"ELEMENT_SET_NO":999,"REV_AT_EPOCH":18401,"BSTAR":0,"MEAN_MOTION_DOT":-1.0e-8,"MEAN_MOTION_DDOT":0},{"OBJECT_NAME":"GOES 2","OBJECT_ID":"1977-048A","EPOCH":"2026-03-03T23:11:21.694848","MEAN_MOTION":0.99397546,"ECCENTRICITY":0.001389,"INCLINATION":6.6702,"RA_OF_ASC_NODE":294.2228,"ARG_OF_PERICENTER":47.6111,"MEAN_ANOMALY":284.74,"EPHEMERIS_TYPE":0,"CLASSIFICATION_TYPE":"U","NORAD_CAT_ID":10061,"ELEMENT_SET_NO":999,"REV_AT_EPOCH":4522,"BSTAR":0,"MEAN_MOTION_DOT":-2.74e-6,"MEAN_MOTION_DDOT":0},{"OBJECT_NAME":"GOES 3","OBJECT_ID":"1978-062A","EPOCH":"2026-03-04T11:10:38.718624","MEAN_MOTION":0.99365953,"ECCENTRICITY":0.00028002,"INCLINATION":7.1387,"RA_OF_ASC_NODE":300.048,"ARG_OF_PERICENTER":355.103,"MEAN_ANOMALY":192.9755,"EPHEMERIS_TYPE":0,"CLASSIFICATION_TYPE":"U","NORAD_CAT_ID":10953,"ELEMENT_SET_NO":999,"REV_AT_EPOCH":12749,"BSTAR":0,"MEAN_MOTION_DOT":-2.82e-6,"MEAN_MOTION_DDOT":0},{"OBJECT_NAME":"GOES 4","OBJECT_ID":"1980-074A","EPOCH":"2026-03-04T01:48:50.167296","MEAN_MOTION":0.99231191,"ECCENTRICITY":0.00320964,"INCLINATION":8.2129,"RA_OF_ASC_NODE":303.7336,"ARG_OF_PERICENTER":103.0312,"MEAN_ANOMALY":91.1211,"EPHEMERIS_TYPE":0,"CLASSIFICATION_TYPE":"U","NORAD_CAT_ID":11964,"ELEMENT_SET_NO":999,"REV_AT_EPOCH":12639,"BSTAR":0,"MEAN_MOTION_DOT":-2.45e-6,"MEAN_MOTION_DDOT":0},{"OBJECT_NAME":"GOES 5","OBJECT_ID":"1981-049A","EPOCH":"2026-03-04T03:20:48.848928","MEAN_MOTION":1.00211544,"ECCENTRICITY":0.000466,"INCLINATION":9.5464,"RA_OF_ASC_NODE":316.344,"ARG_OF_PERICENTER":336.9727,"MEAN_ANOMALY":190.1982,"EPHEMERIS_TYPE":0,"CLASSIFICATION_TYPE":"U","NORAD_CAT_ID":12472,"ELEMENT_SET_NO":999,"REV_AT_EPOCH":12179,"BSTAR":0,"MEAN_MOTION_DOT":-2.04e-6,"MEAN_MOTION_DDOT":0},{"OBJECT_NAME":"GOES 6","OBJECT_ID":"1983-041A","EPOCH":"2026-03-03T07:54:34.576704","MEAN_MOTION":1.00217666,"ECCENTRICITY":0.00023608,"INCLINATION":10.3592,"RA_OF_ASC_NODE":321.907,"ARG_OF_PERICENTER":306.4375,"MEAN_ANOMALY":262.1209,"EPHEMERIS_TYPE":0,"CLASSIFICATION_TYPE":"U","NORAD_CAT_ID":14050,"ELEMENT_SET_NO":999,"REV_AT_EPOCH":21495,"BSTAR":0,"MEAN_MOTION_DOT":-8.2e-7,"MEAN_MOTION_DDOT":0},{"OBJECT_NAME":"GOES 7","OBJECT_ID":"1987-022A","EPOCH":"2026-03-03T09:44:14.504352","MEAN_MOTION":0.99894387,"ECCENTRICITY":0.00039437,"INCLINATION":13.0217,"RA_OF_ASC_NODE":338.3812,"ARG_OF_PERICENTER":14.6167,"MEAN_ANOMALY":182.393,"EPHEMERIS_TYPE":0,"CLASSIFICATION_TYPE":"U","NORAD_CAT_ID":17561,"ELEMENT_SET_NO":999,"REV_AT_EPOCH":12590,"BSTAR":0,"MEAN_MOTION_DOT":6.8e-7,"MEAN_MOTION_DDOT":0},{"OBJECT_NAME":"GOES 8","OBJECT_ID":"1994-022A","EPOCH":"2026-03-04T02:51:44.138304","MEAN_MOTION":0.98908183,"ECCENTRICITY":0.00049916,"INCLINATION":14.3402,"RA_OF_ASC_NODE":14.4723,"ARG_OF_PERICENTER":14.2509,"MEAN_ANOMALY":345.4739,"EPHEMERIS_TYPE":0,"CLASSIFICATION_TYPE":"U","NORAD_CAT_ID":23051,"ELEMENT_SET_NO":999,"REV_AT_EPOCH":12308,"BSTAR":0,"MEAN_MOTION_DOT":-2.47e-6,"MEAN_MOTION_DDOT":0},{"OBJECT_NAME":"GOES 9","OBJECT_ID":"1995-025A","EPOCH":"2026-03-04T07:12:38.742624","MEAN_MOTION":0.98798677,"ECCENTRICITY":0.00036399,"INCLINATION":13.8697,"RA_OF_ASC_NODE":15.3139,"ARG_OF_PERICENTER":210.9793,"MEAN_ANOMALY":324.3309,"EPHEMERIS_TYPE":0,"CLASSIFICATION_TYPE":"U","NORAD_CAT_ID":23581,"ELEMENT_SET_NO":999,"REV_AT_EPOCH":11172,"BSTAR":0,"MEAN_MOTION_DOT":-8.6e-7,"MEAN_MOTION_DDOT":0},{"OBJECT_NAME":"GOES 10","OBJECT_ID":"1997-019A","EPOCH":"2026-03-04T11:57:41.584608","MEAN_MOTION":0.99122187,"ECCENTRICITY":0.00311019,"INCLINATION":13.0041,"RA_OF_ASC_NODE":21.8467,"ARG_OF_PERICENTER":239.2238,"MEAN_ANOMALY":176.273,"EPHEMERIS_TYPE":0,"CLASSIFICATION_TYPE":"U","NORAD_CAT_ID":24786,"ELEMENT_SET_NO":999,"REV_AT_EPOCH":10503,"BSTAR":0,"MEAN_MOTION_DOT":-8.5e-7,"MEAN_MOTION_DDOT":0},{"OBJECT_NAME":"GOES 11","OBJECT_ID":"2000-022A","EPOCH":"2026-03-03T22:16:49.421856","MEAN_MOTION":0.99041062,"ECCENTRICITY":0.0005945,"INCLINATION":11.5793,"RA_OF_ASC_NODE":47.4483,"ARG_OF_PERICENTER":254.4886,"MEAN_ANOMALY":120.1146,"EPHEMERIS_TYPE":0,"CLASSIFICATION_TYPE":"U","NORAD_CAT_ID":26352,"ELEMENT_SET_NO":999,"REV_AT_EPOCH":5143,"BSTAR":0,"MEAN_MOTION_DOT":-1.24e-6,"MEAN_MOTION_DDOT":0},{"OBJECT_NAME":"GOES 12","OBJECT_ID":"2001-031A","EPOCH":"2026-03-03T20:38:50.777952","MEAN_MOTION":0.99137434,"ECCENTRICITY":0.000876,"INCLINATION":11.9937,"RA_OF_ASC_NODE":38.1473,"ARG_OF_PERICENTER":295.8491,"MEAN_ANOMALY":79.8206,"EPHEMERIS_TYPE":0,"CLASSIFICATION_TYPE":"U","NORAD_CAT_ID":26871,"ELEMENT_SET_NO":999,"REV_AT_EPOCH":8972,"BSTAR":0,"MEAN_MOTION_DOT":-2.11e-6,"MEAN_MOTION_DDOT":0},{"OBJECT_NAME":"EWS-G1 (GOES 13)","OBJECT_ID":"2006-018A","EPOCH":"2026-03-04T03:14:56.912352","MEAN_MOTION":0.98784863,"ECCENTRICITY":0.00620005,"INCLINATION":4.2603,"RA_OF_ASC_NODE":77.7059,"ARG_OF_PERICENTER":273.0394,"MEAN_ANOMALY":110.1723,"EPHEMERIS_TYPE":0,"CLASSIFICATION_TYPE":"U","NORAD_CAT_ID":29155,"ELEMENT_SET_NO":999,"REV_AT_EPOCH":4221,"BSTAR":0,"MEAN_MOTION_DOT":3.3e-7,"MEAN_MOTION_DDOT":0},{"OBJECT_NAME":"GOES 14","OBJECT_ID":"2009-033A","EPOCH":"2026-03-04T11:59:38.762880","MEAN_MOTION":1.00124429,"ECCENTRICITY":0.00022607,"INCLINATION":1.4192,"RA_OF_ASC_NODE":84.4208,"ARG_OF_PERICENTER":298.7445,"MEAN_ANOMALY":160.7749,"EPHEMERIS_TYPE":0,"CLASSIFICATION_TYPE":"U","NORAD_CAT_ID":35491,"ELEMENT_SET_NO":999,"REV_AT_EPOCH":554,"BSTAR":0,"MEAN_MOTION_DOT":1.17e-6,"MEAN_MOTION_DDOT":0},{"OBJECT_NAME":"EWS-G2 (GOES 15)","OBJECT_ID":"2010-008A","EPOCH":"2026-03-04T12:09:20.902752","MEAN_MOTION":1.0026946,"ECCENTRICITY":0.00019067,"INCLINATION":1.0093,"RA_OF_ASC_NODE":85.1478,"ARG_OF_PERICENTER":19.7381,"MEAN_ANOMALY":303.1848,"EPHEMERIS_TYPE":0,"CLASSIFICATION_TYPE":"U","NORAD_CAT_ID":36411,"ELEMENT_SET_NO":999,"REV_AT_EPOCH":5858,"BSTAR":0,"MEAN_MOTION_DOT":1.0e-7,"MEAN_MOTION_DDOT":0},{"OBJECT_NAME":"GOES 16","OBJECT_ID":"2016-071A","EPOCH":"2026-03-04T08:33:38.625984","MEAN_MOTION":1.00271047,"ECCENTRICITY":0.00025551,"INCLINATION":0.1377,"RA_OF_ASC_NODE":89.7852,"ARG_OF_PERICENTER":217.0177,"MEAN_ANOMALY":239.0082,"EPHEMERIS_TYPE":0,"CLASSIFICATION_TYPE":"U","NORAD_CAT_ID":41866,"ELEMENT_SET_NO":999,"REV_AT_EPOCH":3405,"BSTAR":0,"MEAN_MOTION_DOT":-1.02e-6,"MEAN_MOTION_DDOT":0},{"OBJECT_NAME":"GOES 17","OBJECT_ID":"2018-022A","EPOCH":"2026-03-04T08:25:38.679168","MEAN_MOTION":1.00270359,"ECCENTRICITY":0.0002253,"INCLINATION":0.668,"RA_OF_ASC_NODE":87.5564,"ARG_OF_PERICENTER":221.55,"MEAN_ANOMALY":249.8945,"EPHEMERIS_TYPE":0,"CLASSIFICATION_TYPE":"U","NORAD_CAT_ID":43226,"ELEMENT_SET_NO":999,"REV_AT_EPOCH":2937,"BSTAR":0,"MEAN_MOTION_DOT":-1.94e-6,"MEAN_MOTION_DDOT":0}]
